CZ-2C R/B               
1 54039U 22132E   26029.95132299  .00051445  00000+0  66795-3 0  9994
2 54039  97.2950  32.2000 0016913 228.8824 131.0973 15.58499375184335
GSLV R/B                
1 54149U 22138AN  26029.94061131  .00005054  00000+0  44144-3 0  9996
2 54149  87.3842 179.3295 0019584 295.4110  64.5093 14.96467685178135
XRISM                   
1 57800U 23137A   26030.06857993  .00008162  00000+0  47085-3 0  9997
2 57800  31.0005 173.3673 0007977  11.9080 348.1746 15.10995589131943
ACS3                    
1 59588U 24077B   26029.88035589  .00022248  00000+0  18508-1 0  9990
2 59588  97.2280 339.7143 0046875 203.3583 156.5451 13.87964269 88816
SZ-21 MODULE            
1 66515U 25246C   26030.19811666  .00040110  00000+0  38767-3 0  9990
2 66515  41.4758  79.7800 0003420 256.7096 103.3364 15.65663089 12034
